[{"OBJECT_NAME":"STARLINK-4133","OBJECT_ID":"2022-086M","EPOCH":"2026-03-09T15:10:34.670208","MEAN_MOTION":15.08839541,"ECCENTRICITY":0.0001297,"INCLINATION":53.217,"RA_OF_ASC_NODE":194.378,"ARG_OF_PERICENTER":92.4801,"MEAN_ANOMALY":267.634,"EPHEMERIS_TYPE":0,"CLASSIFICATION_TYPE":"U","NORAD_CAT_ID":53253,"ELEMENT_SET_NO":999,"REV_AT_EPOCH":20105,"BSTAR":-1.7041e-6,"MEAN_MOTION_DOT":-3.15e-6,"MEAN_MOTION_DDOT":0},{"OBJECT_NAME":"CZ-4B DEB","OBJECT_ID":"2004-035N","EPOCH":"2026-03-08T07:19:22.074240","MEAN_MOTION":15.17712882,"ECCENTRICITY":0.00700404,"INCLINATION":97.867,"RA_OF_ASC_NODE":11.9774,"ARG_OF_PERICENTER":119.6038,"MEAN_ANOMALY":241.2197,"EPHEMERIS_TYPE":0,"CLASSIFICATION_TYPE":"U","NORAD_CAT_ID":35270,"ELEMENT_SET_NO":999,"REV_AT_EPOCH":13623,"BSTAR":0.0033008842,"MEAN_MOTION_DOT":0.00071474,"MEAN_MOTION_DDOT":0}]
